[
  {
    "id": 1,
    "city": "Москва",
    "state": "Москва",
    "zip_code": "101000",
    "latitude": 55.7558,
    "longitude": 37.6173
  },
  {
    "id": 2,
    "city": "Санкт-Петербург",
    "state": "Ленинградская область",
    "zip_code": "190000",
    "latitude": 59.9343,
    "longitude": 30.3351
  },
  {
    "id": 3,
    "city": "Екатеринбург",
    "state": "Свердловская область",
    "zip_code": "620000",
    "latitude": 56.8389,
    "longitude": 60.6057
  },
  {
    "id": 4,
    "city": "Казань",
    "state": "Республика Татарстан",
    "zip_code": "420000",
    "latitude": 55.796127,
    "longitude": 49.106405
  },
  {
    "id": 6,
    "city": "Новосибирск",
    "state": "Новосибирская область",
    "zip_code": "630000",
    "latitude": 55.0415,
    "longitude": 82.9343
  },
  {
    "id": 7,
    "city": "Нижний Новгород",
    "state": "Нижегородская область",
    "zip_code": "603000",
    "latitude": 56.3269,
    "longitude": 43.9963
  },
  {
    "id": 8,
    "city": "Красноярск",
    "state": "Красноярский край",
    "zip_code": "660000",
    "latitude": 56.0184,
    "longitude": 92.8673
  },
  {
    "id": 9,
    "city": "Самара",
    "state": "Самарская область",
    "zip_code": "443000",
    "latitude": 53.2001,
    "longitude": 50.1503
  },
  {
    "id": 10,
    "city": "Омск",
    "state": "Омская область",
    "zip_code": "644000",
    "latitude": 54.9667,
    "longitude": 73.3667
  },
  {
    "id": 11,
    "city": "Челябинск",
    "state": "Челябинская область",
    "zip_code": "454000",
    "latitude": 55.1542,
    "longitude": 61.4292
  },
  {
    "id": 12,
    "city": "Ростов-на-Дону",
    "state": "Ростовская область",
    "zip_code": "344000",
    "latitude": 47.2333,
    "longitude": 39.7003
  },
  {
    "id": 13,
    "city": "Уфа",
    "state": "Республика Башкортостан",
    "zip_code": "450000",
    "latitude": 54.7333,
    "longitude": 55.9667
  },
  {
    "id": 14,
    "city": "Волгоград",
    "state": "Волгоградская область",
    "zip_code": "400000",
    "latitude": 48.7167,
    "longitude": 44.5003
  },
  {
    "id": 15,
    "city": "Пермь",
    "state": "Пермский край",
    "zip_code": "614000",
    "latitude": 58.0003,
    "longitude": 56.2503
  },
  {
    "id": 16,
    "city": "Воронеж",
    "state": "Воронежская область",
    "zip_code": "394000",
    "latitude": 51.6667,
    "longitude": 39.1833
  },
  {
    "id": 17,
    "city": "Саратов",
    "state": "Саратовская область",
    "zip_code": "410000",
    "latitude": 51.5333,
    "longitude": 46.0333
  },
  {
    "id": 18,
    "city": "Краснодар",
    "state": "Краснодарский край",
    "zip_code": "350000",
    "latitude": 45.0333,
    "longitude": 38.9833
  },
  {
    "id": 19,
    "city": "Тюмень",
    "state": "Тюменская область",
    "zip_code": "625000",
    "latitude": 57.1503,
    "longitude": 65.5333
  },
  {
    "id": 20,
    "city": "Барнаул",
    "state": "Алтайский край",
    "zip_code": "656000",
    "latitude": 53.3503,
    "longitude": 83.7833
  },
  {
    "id": 21,
    "city": "Владивосток",
    "state": "Приморский край",
    "zip_code": "690000",
    "latitude": 43.1333,
    "longitude": 131.9003
  }
]